POI_Name,Address1,Address2,City,State,PIN,Country,Tel,Lat,Lon
Shoppers Stop, FP No. 216, TP Scheme - 1  Vastrapur,  Ahmedabad,  Gujarat ,380054,India,9.1794E+11,23.039826,72.531386
Shoppers Stop,Alpha One Mall, MBM Farms  Sultanwind Near Istaa Hotel  G T Road,Amritsar,Punjab ,143010,India ,9.11837E+11,31.619342,74.907952
Shoppers Stop, AlphaOne, Near Istaa Hotel  G.T. Road,Amritsar, Punjab ,143010,India,9.11837E+11,31.619328,74.907998
Shoppers Stop, Prozone Mall," Plot Sector-C Chikalthana Industrial Area, Masantpur", Aurangabad, Maharashtra,431210, India,9.12407E+11,19.876702,75.373683
Shoppers Stop,Prozone Mall," Gate No. 3,Plot No. 80 Sector C,  Chikalthana Industrial Area",  Aurangabad ,Maharashtra ,431210,India ,9.12407E+11,19.876762,75.373621
Shoppers Stop, Koramangala Industrial Layout,"Adugodi Road, Next to Forum Mall,Salarpuria Tower - 2",Bangalore, Karnataka ,560095, India,9.18041E+11,12.943551,77.611152
Shoppers Stop,"Upper Ground Floor,"," Mantri Square,Sampige Road, Malleswaram",Bangalore, Karnataka ,560003,India,9.18044E+11,12.991707,77.571013
Shoppers Stop, Garuda Mall, Magrath Road , Bangalore, Karnataka ,560025,India,9.18043E+11,12.970037,77.610069
Shoppers Stop, Commerce@mantri, Bannerghatta Road,  Bangalore, Karnataka,560076,India,9.18043E+11,12.91258,77.600593
Shoppers Stop, Bangalore International Airport, Domestic Passenger Terminal.   Bangalore, Karnataka,560300,,India,9.18067E+11,13.200578,77.709192
Shoppers Stop, DB City Mall, Arera Hills ,Bhopal, MP,462011, India,9.17557E+11,23.232616,77.430473
Shoppers Stop, DB City, Arera Hills,Bhopal, MP,462011,India,9.17557E+11,23.232666,77.430476
Shoppers Stop, K.R.M Centre," Harrington Road, Chetpet.", Chennai, TN,600031, India,9.14444E+11,13.060484,80.249582
Shoppers Stop,Shyamala Towers,"136,  Arcot Road,Saligramam next to Avichi School", Chennai ,TN,600093,India,9.1445E+12,13.047903,80.198626
Shoppers Stop, Ambience Mall,"Nelson Mandela Road, Vasant Kunj.",Delhi,Delhi,110070,India,9.11141E+11,28.540544,77.154737
Shoppers Stop, Ansal Plaza, Khel Gaon Marg.,Delhi,Delhi,110049, India,9.11146E+11,28.562547,77.224786
Shoppers Stop, Raja Garden, Opp. Rajouri Garden Metro Station.,Delhi,Delhi,110027,India,9.11145E+11,28.651228,77.121228
Shoppers Stop, MGF Metropolitan Mall, Saket.,Delhi, Delhi,110017, India,9.11146E+11,28.523736,77.206447
"									",,,,,,,,,
"									",,,,,,,,,
"									",,,,,,,,,
"									",,,,,,,,,
"									",,,,,,,,,
"									",,,,,,,,,
"									",,,,,,,,,
"									",,,,,,,,,
"									",,,,,,,,,
"									",,,,,,,,,
"									",,,,,,,,,
"									",,,,,,,,,
"									",,,,,,,,,
"									",,,,,,,,,
"									",,,,,,,,,
"									",,,,,,,,,
"									",,,,,,,,,
"									",,,,,,,,,
"									",,,,,,,,,
"									",,,,,,,,,
"									",,,,,,,,,
"									",,,,,,,,,
"									",,,,,,,,,
"									",,,,,,,,,
"									",,,,,,,,,
"									",,,,,,,,,
"									",,,,,,,,,
"									",,,,,,,,,
"									",,,,,,,,,
"									",,,,,,,,,
"									",,,,,,,,,
"									",,,,,,,,,
"									",,,,,,,,,
"									",,,,,,,,,
"									",,,,,,,,,
"									",,,,,,,,,
"									",,,,,,,,,
"									",,,,,,,,,
"									",,,,,,,,,
"									",,,,,,,,,
"									",,,,,,,,,
"									",,,,,,,,,
"									",,,,,,,,,
"									",,,,,,,,,
"									",,,,,,,,,
"									",,,,,,,,,
"									",,,,,,,,,
"									",,,,,,,,,
"									",,,,,,,,,
"									",,,,,,,,,
"									",,,,,,,,,
"									",,,,,,,,,
"									",,,,,,,,,
"									",,,,,,,,,
"									",,,,,,,,,
"									",,,,,,,,,
"									",,,,,,,,,
"									",,,,,,,,,
"									",,,,,,,,,
"									",,,,,,,,,
"									",,,,,,,,,
"									",,,,,,,,,
"									",,,,,,,,,
"									",,,,,,,,,
"									",,,,,,,,,
"									",,,,,,,,,
"									",,,,,,,,,
"									",,,,,,,,,
"									",,,,,,,,,
"									",,,,,,,,,
"									",,,,,,,,,
"									",,,,,,,,,
"									",,,,,,,,,
"									",,,,,,,,,
"									",,,,,,,,,
"									",,,,,,,,,
"									",,,,,,,,,
"									",,,,,,,,,
"									",,,,,,,,,
"									",,,,,,,,,
"									",,,,,,,,,
"									",,,,,,,,,
"									",,,,,,,,,
"									",,,,,,,,,
"									",,,,,,,,,
"									",,,,,,,,,
"									",,,,,,,,,
"									",,,,,,,,,
"									",,,,,,,,,
"									",,,,,,,,,
"									",,,,,,,,,
"									",,,,,,,,,
"									",,,,,,,,,
"									",,,,,,,,,
"									",,,,,,,,,
"									",,,,,,,,,
"									",,,,,,,,,
"									",,,,,,,,,
"									",,,,,,,,,
"									",,,,,,,,,
"									",,,,,,,,,
"									",,,,,,,,,
"									",,,,,,,,,
"									",,,,,,,,,
"									",,,,,,,,,
"									",,,,,,,,,
"									",,,,,,,,,
"									",,,,,,,,,
"									",,,,,,,,,
"									",,,,,,,,,
"									",,,,,,,,,
"									",,,,,,,,,
"									",,,,,,,,,
"									",,,,,,,,,
"									",,,,,,,,,
"									",,,,,,,,,
"									",,,,,,,,,
"									",,,,,,,,,
"									",,,,,,,,,
"									",,,,,,,,,
"		 							",,,,,,,,,
"		 							",,,,,,,,,
"		 							",,,,,,,,,
"		 							",,,,,,,,,
"		 							",,,,,,,,,
"		 							",,,,,,,,,
"		 							",,,,,,,,,
"		 							",,,,,,,,,
