POI_Name,Address1,Address2,City,State,PIN,Tel,Country,Lat,Lon
"KFC,""FP No. 216, TP Scheme - 1"", Vastrapur,Ahmedabad,Gujarat,380054,40272323,India,23.039826,72.531386"
"KFC,""# 59A -1-4,LEPL ICON Mall"","" Besides Maris Stella College,Ring Road"",Vijayawada,Andhra Pradesh,520 008,3069800,India,16.50274,80.659826"
KFC,Opp. Alankar Talkies, Chainsukh Road,Latur,Maharashtra,413 512,661800,India,18.402089,76.583893
"KFC,""Prozone Mall, Plot Sector-C"",""Chikalthana Industrial Area,Masantpur"",Aurangabad,Maharashtra,431210,6649111,India,19.876702,75.373683"
"KFC,""Mall of Mysore, C 1,Indiranagar Extension"","" Nazarabad Mohalla,M. G. Road, Near Mysore Zoo, Next to Mysore Golf Course"",Mysore,Karnataka,570010,42863000,India,12.297975,76.664823"
"KFC,""Junction mall,Mouza-Faridpur"",""J.L no 74, City Centre"",Durgapur,West Bengal,713216,6606666,India,23.539316,87.290419"
"KFC,""Alpha One Mall, MBM Farms, Sultanwind"",""Near Istaa Hotel, G T Road"",Amritsar,Punjab,143010,6611900,India,31.619342,74.907952"
"KFC,Suncity Trion Mall,"" Near Bhawani Niketan College, Off Sikar Road "",Jaipur,Rajasthan,302012,5156850,India,26.941035,75.771597"
"KFC,""304, 3rd Floor, Gaurav Towers 2"","" Plot no. 2,Indira Palace  Malaviya Nagar"",Jaipur,Rajasthan,302017,4139000,India,26.855518,75.807096"
KFC,DB City Mall,Arera Hills,Bhopal,MP,462011,6546370,India,23.232616,77.430473
"KFC,BPK Star Building,"" Opp. Lig Gurudwara, A.B.Road, Near Shaniwar Darpan"",Indore,MP,452001,4220700,India,22.719616,75.857728"
"KFC,AlphaOne,"" Near Istaa Hotel, G.T. Road"",Amritsar,Punjab,143010,0183-6611900. ,India,31.619328,74.907998"
"KFC,""Prozone Mall, Gate No. 3"","" Plot No. 80, Sector C,Chikalthana Industrial Area"",Aurangabad,Maharashtra,431210,0240 6649111,India,19.876762,75.373621"
KFC,DB City, Arera Hills.,Bhopal,MP,462011,0755-6546370,India,23.232666,77.430476
KFC,Fun Republic Mall, Gomti Nagar,Lucknow,UP,226010,0522-4036800/2304602-610,India,26.857081,80.976064
"KFC,Junction Mall,"" Mouza-Faridpur, J.L. No. 74, City Centre. "",Durgapur,West Bengal,713216,0343 2542740/41,India,23.53935,87.290416"
"KFC,""E 0001, Ground Floor, City Centre"","" MatiGara, NH 31"",Siliguri,West Bengal,734010,0353 2571132/52. ,India,26.7175,88.392"
"KFC,Opp. LIG Gurudwara,"" B.P.K. Star Building, A.B. Road"",Indore,MP,452001,0731 4220700,India,22.719621,75.857731"
"KFC,""Tower A, Spaze, I Tech Park"", Sector 49  Gurgaon Sohna Road,Gurgaon,Delhi-NCR,122 002,0124: 4920000,India,28.41367,77.042304"
"KFC,""MBD Neopolis Mall, Civil Lines"",""  Beside Hotel Raddison,  BMC Chowk, GT Road"",Jalandhar,Punjab,,(0181) – 6600500,India,30.883344,75.781843"
"KFC,""Plot No # 59A-1-4,LEPL ICON mall"","" Beside Marie Stella College, Ring road"",Vijaywada,Andhra Pradesh,520008,0866 3069800,India,16.502691,80.65984"
"KFC,Inorbit Mall  Opp. CTR Factory,"" Somnath Nagar Corner, Nagar Road, Viman Nagar."",Pune,Maharashtra,411014,020-66870100 ,India,18.561068,73.920685"
KFC,Nucleus Mall, Opp. Commissioner’s Office  Camp. ,Pune,Maharashtra,411001,41400200,India,18.521454,73.877123
KFC,Wakdewadi, Shivaji Nagar,Pune,Maharashtra,411005,41400500,India,18.53466,73.85227
KFC,City Centre, Salt Lake ,Kolkata,West Bengal,700064,44030000,India,22.587642,88.407733
KFC,The Forum Mall, Elgin Road ,Kolkata,West Bengal,700020,44030222,India,22.537905,88.35124
KFC,South City Mall, Prince Anwar Shah Road,Kolkata,West Bengal,700068,44030011,India,22.501996,88.361835
"KFC,GVK One Mall,"" Road No. 1, Banjara Hills."",Hyderabad,Andhra Pradesh,500034,44767710/12 ,India,17.419225,78.448361"
KFC,Airport Road, Begumpet,Hyderabad,Andhra Pradesh,500034,44758802,India,17.445253,78.465677
"KFC,Inorbit Mall,"" Hi Tech City, Madhapur. "",Hyderabad,Andhra Pradesh,500081,44609500,India,17.434702,78.386971"
"KFC,GMR Hyderabad International Airport,"" Level-F, Passenger Terminal Building. "",Hyderabad,Andhra Pradesh,500409,66603757,India,17.41654,78.438236"
"KFC,Ambience Mall,"" Nelson Mandela Road, Vasant Kunj. "",Delhi,Delhi,110070,40870400,India,28.540544,77.154737"
KFC,Ansal Plaza, Khel Gaon Marg.,Delhi,Delhi,110049,45737177,India,28.562547,77.224786
KFC,Raja Garden, Opp. Rajouri Garden Metro Station. ,Delhi,Delhi,110027,45055400,India,28.651228,77.121228
KFC,MGF Metropolitan Mall, Saket. ,Delhi,Delhi,110017,46098300,India,28.523736,77.206447
KFC,MGF Metropolitan Mall,,Gurgaon,Delhi-NCR,122002,95124-4019988 ,India,28.478754,77.082223
KFC,Shipra Mall  ,Indirapuram,Ghaziabad,Delhi-NCR,201012,95120-4189647 ,India,28.634117,77.369957
KFC,The Great India Place, Opp. Sec 18 Market. ,Noida,Delhi-NCR,201301,95120-4056000,India,28.567857,77.325218
KFC,K.R.M Centre, Harrington Road  Chetpet. ,Chennai,TN,600031,43972626,India,13.060484,80.249582
"KFC,Shyamala Towers,""136  Arcot Road  Saligramam,next to Avichi School"",Chennai,TN,600093,499013500-49,India,13.047903,80.198626"
KFC,S.V. Road, Andheri.,Mumbai,Maharashtra,400058,40746000,India,19.139221,72.844532
KFC,Linking Road, Bandra,Mumbai,Maharashtra,400050,42492100/26435424,India,19.06155,72.835949
KFC,Near Amar Mahal, Chembur.,Mumbai,Maharashtra,400089,42492300,India,19.066871,72.899828
KFC,Next to Chandan Cinema, Juhu,Mumbai,Maharashtra,400049,26256271,India,19.114777,72.826883
KFC,S.V. Road, Kandivili,Mumbai,Maharashtra,,42492222,India,19.19784,72.84842
KFC,Nirmal Lifestyle, Mulund. ,Mumbai,Maharashtra,400080,41597777,India,19.165886,72.937642
KFC,Inorbit Mall, Sector 30 A  Vashi,Navi Mumbai,Maharashtra,4000705,41592600,India,19.066215,73.000355
"KFC,Inorbit Mall,"" Link Road, Malad (West). "",Mumbai,Maharashtra,400064,42492500,India,19.172248,72.835511"
"KFC,""Koramangala Industrial Layout, Adugodi Road"","" Next to Forum Mall,Salarpuria Tower - 2"",Bangalore,Karnataka,560095,41485762/63 ,India,12.943551,77.611152"
"KFC,Upper Ground Floor,"" Mantri Square, Sampige Road, Malleswaram"",Bangalore,Karnataka,560003,43627600,India,12.991707,""77.571013"""""""
KFC,Garuda Mall, Magrath Road,Bangalore,Karnataka,560025,43401300/317/320/301 ,India,12.970037,77.610069
KFC,Commerce@mantri, Bannerghatta Road,Bangalore,Karnataka,560076,43400400/404/414/405 ,India,12.91258,77.600593
KFC,Bangalore International Airport, Domestic Passenger Terminal. ,Bangalore,Karnataka,560300,66783613,India,13.200578,77.709192
